{
  "type": "FeatureCollection",
  "features": [
    {
      "type": "Feature",
      "properties": {
        "norad_id": 32393,
        "name": "COSMOS 2434 (721)",
        "group": "gnss",
        "lat": -28.1052668961059,
        "lon": -176.9136056736024,
        "alt_km": 19136.28020575721,
        "timestamp": "2025-12-19T06:59:44.150115+00:00",
        "meta_object_name": "COSMOS 2434 (721)",
        "meta_object_id": "2007-065A",
        "meta_epoch": "2025-12-18T04:23:29.536800",
        "meta_mean_motion": 2.13101428,
        "meta_eccentricity": 0.00044399,
        "meta_inclination": 64.3148,
        "meta_ra_of_asc_node": 198.0196,
        "meta_arg_of_pericenter": 71.1558,
        "meta_mean_anomaly": 127.0412,
        "meta_ephemeris_type": 0,
        "meta_classification_type": "U",
        "meta_norad_cat_id": 32393,
        "meta_element_set_no": 999,
        "meta_rev_at_epoch": 13991,
        "meta_bstar": 0,
        "meta_mean_motion_dot": 1.1e-06,
        "meta_mean_motion_ddot": 0,
        "tle_line1": "1 32393U 07065A   25352.18298075  .00000110  00000+0  00000+0 0  9995",
        "tle_line2": "2 32393  64.3148 198.0196 0004439  71.1558 127.0412  2.13101428139911"
      },
      "geometry": {
        "type": "Point",
        "coordinates": [
          -176.9136056736024,
          -28.1052668961059
        ]
      }
    },
    {
      "type": "Feature",
      "properties": {
        "norad_id": 32395,
        "name": "COSMOS 2436 (723)",
        "group": "gnss",
        "lat": 61.886516756047385,
        "lon": -46.21149342449703,
        "alt_km": 19125.2043560567,
        "timestamp": "2025-12-19T06:59:44.150127+00:00",
        "meta_object_name": "COSMOS 2436 (723)",
        "meta_object_id": "2007-065C",
        "meta_epoch": "2025-12-16T08:11:52.503360",
        "meta_mean_motion": 2.13100112,
        "meta_eccentricity": 0.00177699,
        "meta_inclination": 64.3235,
        "meta_ra_of_asc_node": 198.1521,
        "meta_arg_of_pericenter": 9.2217,
        "meta_mean_anomaly": 349.3751,
        "meta_ephemeris_type": 0,
        "meta_classification_type": "U",
        "meta_norad_cat_id": 32395,
        "meta_element_set_no": 999,
        "meta_rev_at_epoch": 13982,
        "meta_bstar": 0,
        "meta_mean_motion_dot": 1.1e-06,
        "meta_mean_motion_ddot": 0,
        "tle_line1": "1 32395U 07065C   25350.34157990  .00000110  00000+0  00000+0 0  9993",
        "tle_line2": "2 32395  64.3235 198.1521 0017769   9.2217 349.3751  2.13100112139821"
      },
      "geometry": {
        "type": "Point",
        "coordinates": [
          -46.21149342449703,
          61.886516756047385
        ]
      }
    },
    {
      "type": "Feature",
      "properties": {
        "norad_id": 32711,
        "name": "GPS BIIRM-6 (PRN 07)",
        "group": "gnss",
        "lat": 54.12859206063565,
        "lon": -104.12754142388037,
        "alt_km": 20638.630072773823,
        "timestamp": "2025-12-19T06:59:44.150139+00:00",
        "meta_object_name": "GPS BIIRM-6 (PRN 07)",
        "meta_object_id": "2008-012A",
        "meta_epoch": "2025-12-18T15:45:34.322400",
        "meta_mean_motion": 2.00565916,
        "meta_eccentricity": 0.02026894,
        "meta_inclination": 54.4778,
        "meta_ra_of_asc_node": 157.1367,
        "meta_arg_of_pericenter": 245.0129,
        "meta_mean_anomaly": 112.867,
        "meta_ephemeris_type": 0,
        "meta_classification_type": "U",
        "meta_norad_cat_id": 32711,
        "meta_element_set_no": 999,
        "meta_rev_at_epoch": 13013,
        "meta_bstar": 0,
        "meta_mean_motion_dot": 7e-07,
        "meta_mean_motion_ddot": 0,
        "tle_line1": "1 32711U 08012A   25352.65664725  .00000070  00000+0  00000+0 0  9998",
        "tle_line2": "2 32711  54.4778 157.1367 0202689 245.0129 112.8670  2.00565916130138"
      },
      "geometry": {
        "type": "Point",
        "coordinates": [
          -104.12754142388037,
          54.12859206063565
        ]
      }
    },
    {
      "type": "Feature",
      "properties": {
        "norad_id": 35752,
        "name": "GPS BIIRM-8 (PRN 05)",
        "group": "gnss",
        "lat": 47.9597032246619,
        "lon": 166.35380738466503,
        "alt_km": 20063.1750161681,
        "timestamp": "2025-12-19T06:59:44.150151+00:00",
        "meta_object_name": "GPS BIIRM-8 (PRN 05)",
        "meta_object_id": "2009-043A",
        "meta_epoch": "2025-12-18T04:21:14.473728",
        "meta_mean_motion": 2.00565462,
        "meta_eccentricity": 0.00516833,
        "meta_inclination": 56.0947,
        "meta_ra_of_asc_node": 34.5684,
        "meta_arg_of_pericenter": 81.8123,
        "meta_mean_anomaly": 312.8651,
        "meta_ephemeris_type": 0,
        "meta_classification_type": "U",
        "meta_norad_cat_id": 35752,
        "meta_element_set_no": 999,
        "meta_rev_at_epoch": 11973,
        "meta_bstar": 0,
        "meta_mean_motion_dot": -7.2e-07,
        "meta_mean_motion_ddot": 0,
        "tle_line1": "1 35752U 09043A   25352.18141752 -.00000072  00000+0  00000+0 0  9992",
        "tle_line2": "2 35752  56.0947  34.5684 0051683  81.8123 312.8651  2.00565462119738"
      },
      "geometry": {
        "type": "Point",
        "coordinates": [
          166.35380738466503,
          47.9597032246619
        ]
      }
    },
    {
      "type": "Feature",
      "properties": {
        "norad_id": 36111,
        "name": "COSMOS 2456 (730)",
        "group": "gnss",
        "lat": 47.332375103889326,
        "lon": -133.37524129423534,
        "alt_km": 19132.387905652882,
        "timestamp": "2025-12-19T06:59:44.150163+00:00",
        "meta_object_name": "COSMOS 2456 (730)",
        "meta_object_id": "2009-070A",
        "meta_epoch": "2025-12-18T06:55:18.738048",
        "meta_mean_motion": 2.13103695,
        "meta_eccentricity": 0.00031882,
        "meta_inclination": 64.9035,
        "meta_ra_of_asc_node": 77.1481,
        "meta_arg_of_pericenter": 297.6027,
        "meta_mean_anomaly": 138.5871,
        "meta_ephemeris_type": 0,
        "meta_classification_type": "U",
        "meta_norad_cat_id": 36111,
        "meta_element_set_no": 999,
        "meta_rev_at_epoch": 12457,
        "meta_bstar": 0,
        "meta_mean_motion_dot": -4.1e-07,
        "meta_mean_motion_ddot": 0,
        "tle_line1": "1 36111U 09070A   25352.28841132 -.00000041  00000+0  00000+0 0  9998",
        "tle_line2": "2 36111  64.9035  77.1481 0003188 297.6027 138.5871  2.13103695124574"
      },
      "geometry": {
        "type": "Point",
        "coordinates": [
          -133.37524129423534,
          47.332375103889326
        ]
      }
    },
    {
      "type": "Feature",
      "properties": {
        "norad_id": 36112,
        "name": "COSMOS 2457 (733)",
        "group": "gnss",
        "lat": -60.95344396659829,
        "lon": -45.57777343173849,
        "alt_km": 19137.260172561735,
        "timestamp": "2025-12-19T06:59:44.150174+00:00",
        "meta_object_name": "COSMOS 2457 (733)",
        "meta_object_id": "2009-070B",
        "meta_epoch": "2025-12-18T11:41:17.961216",
        "meta_mean_motion": 2.13101033,
        "meta_eccentricity": 0.00046158,
        "meta_inclination": 64.8891,
        "meta_ra_of_asc_node": 76.9887,
        "meta_arg_of_pericenter": 160.5919,
        "meta_mean_anomaly": 197.0462,
        "meta_ephemeris_type": 0,
        "meta_classification_type": "U",
        "meta_norad_cat_id": 36112,
        "meta_element_set_no": 999,
        "meta_rev_at_epoch": 12457,
        "meta_bstar": 0,
        "meta_mean_motion_dot": -3.9e-07,
        "meta_mean_motion_ddot": 0,
        "tle_line1": "1 36112U 09070B   25352.48701344 -.00000039  00000+0  00000+0 0  9998",
        "tle_line2": "2 36112  64.8891  76.9887 0004615 160.5919 197.0462  2.13101033124575"
      },
      "geometry": {
        "type": "Point",
        "coordinates": [
          -45.57777343173849,
          -60.95344396659829
        ]
      }
    },
    {
      "type": "Feature",
      "properties": {
        "norad_id": 36402,
        "name": "COSMOS 2460 (732)",
        "group": "gnss",
        "lat": -61.239693213102214,
        "lon": -163.40925206077776,
        "alt_km": 19130.01054767661,
        "timestamp": "2025-12-19T06:59:44.150186+00:00",
        "meta_object_name": "COSMOS 2460 (732)",
        "meta_object_id": "2010-007C",
        "meta_epoch": "2025-12-18T23:03:28.519200",
        "meta_mean_motion": 2.13106274,
        "meta_eccentricity": 0.00025695,
        "meta_inclination": 65.526,
        "meta_ra_of_asc_node": 320.5627,
        "meta_arg_of_pericenter": 278.231,
        "meta_mean_anomaly": 82.4152,
        "meta_ephemeris_type": 0,
        "meta_classification_type": "U",
        "meta_norad_cat_id": 36402,
        "meta_element_set_no": 999,
        "meta_rev_at_epoch": 12289,
        "meta_bstar": 0,
        "meta_mean_motion_dot": -6e-07,
        "meta_mean_motion_ddot": 0,
        "tle_line1": "1 36402U 10007C   25352.96074675 -.00000060  00000+0  00000+0 0  9999",
        "tle_line2": "2 36402  65.5260 320.5627 0002569 278.2310  82.4152  2.13106274122891"
      },
      "geometry": {
        "type": "Point",
        "coordinates": [
          -163.40925206077776,
          -61.239693213102214
        ]
      }
    }
  ]
}